MALLIGYONG-1            
1 58400U 23179A   24082.53165253  .00008527  00000+0  38138-3 0  9992
2 58400  97.4165 330.6753 0008963 195.5630 164.5332 15.21514836 18541
